IRIDIUM 126             
1 42809U 17039G   23327.57605055  .00000431  00000+0  14673-3 0  9994
2 42809  86.4002  25.0608 0002024 104.4654 255.6767 14.34217918335704
IRIDIUM 124             
1 42810U 17039H   23327.53138534  .00000393  00000+0  11083-3 0  9994
2 42810  86.4467 321.8445 0002548  88.7822 271.3671 14.43274451340013
IRIDIUM 128             
1 42811U 17039J   23327.28771444  .00000490  00000+0  16784-3 0  9991
2 42811  86.3989  56.6983 0002173  99.7435 260.4006 14.34218954335693
IRIDIUM 121             
1 42812U 17039K   23327.59508150  .00000410  00000+0  13926-3 0  9995
2 42812  86.4002  25.0743 0001982  93.6888 266.4534 14.34219136335580
IRIDIUM 133             
1 42955U 17061A   23327.80781835  .00000058  00000+0  13712-4 0  9997
2 42955  86.3989  56.5756 0001894 102.3056 257.8352 14.34220890320564
IRIDIUM 100             
1 42956U 17061B   23327.31308850  .00000443  00000+0  15129-3 0  9997
2 42956  86.3988  56.7229 0002111  97.9928 262.1507 14.34220167320491
IRIDIUM 122             
1 42957U 17061C   23327.35114186  .00000462  00000+0  15780-3 0  9993
2 42957  86.3989  56.7047 0002267 102.7456 257.3993 14.34219823320508
IRIDIUM 129             
1 42958U 17061D   23327.79512990  .00000319  00000+0  10668-3 0  9998
2 42958  86.3992  56.5764 0002171 103.0711 257.0727 14.34218682320581
